CTC1_L_00088016-03
1 10062U 23946TM  26075.70030093  .00000000  00000+0  00000-0 0  9994
2 10062  70.0000 180.0000 0000000   0.0000   0.0000 14.79785908    16
CTC1_L_00088016-04
1 10063U 26797QJ  26075.70030093  .00000000  00000+0  00000-0 0  9992
2 10063  70.0000 180.0000 0000000   0.0000  90.0000 14.79785908    16
CTC1_L_00088017-01
1 10064U 25374GR  26075.70030093  .00000000  00000+0  00000-0 0  9993
2 10064  70.0000 192.0000 0000000   0.0000 192.0000 14.79785908    13
CTC1_L_00088017-02
1 10065U 24492VY  26075.70030093  .00000000  00000+0  00000-0 0  9994
2 10065  70.0000 192.0000 0000000   0.0000 282.0000 14.79785908    14
CTC1_L_00088017-03
1 10066U 23484WP  26075.70030093  .00000000  00000+0  00000-0 0  9995
2 10066  70.0000 192.0000 0000000   0.0000  12.0000 14.79785908    16
CTC1_L_00088017-04
1 10067U 24740HJ  26075.70030093  .00000000  00000+0  00000-0 0  9992
2 10067  70.0000 192.0000 0000000   0.0000 102.0000 14.79785908    17
CTC1_L_00088018-01
1 10068U 25534IY  26075.70030093  .00000000  00000+0  00000-0 0  9995
2 10068  70.0000 204.0000 0000000   0.0000 204.0000 14.79785908    15
CTC1_L_00088018-02
1 10069U 25036HA  26075.70030093  .00000000  00000+0  00000-0 0  9993
2 10069  70.0000 204.0000 0000000   0.0000 294.0000 14.79785908    15
CTC1_L_00088018-03
1 10070U 24251HE  26075.70030093  .00000000  00000+0  00000-0 0  9993
2 10070  70.0000 204.0000 0000000   0.0000  24.0000 14.79785908    18
CTC1_L_00088018-04
1 10071U 23965JY  26075.70030093  .00000000  00000+0  00000-0 0  9995
2 10071  70.0000 204.0000 0000000   0.0000 114.0000 14.79785908    19
CTC1_L_00088019-01
1 10072U 24019YS  26075.70030093  .00000000  00000+0  00000-0 0  9997
2 10072  70.0000 216.0000 0000000   0.0000 216.0000 14.79785908    16
CTC1_L_00088019-02
1 10073U 25472YO  26075.70030093  .00000000  00000+0  00000-0 0  9992
2 10073  70.0000 216.0000 0000000   0.0000 306.0000 14.79785908    17
CTC1_L_00088019-03
1 10074U 25184IT  26075.70030093  .00000000  00000+0  00000-0 0  9993
2 10074  70.0000 216.0000 0000000   0.0000  36.0000 14.79785908    18
CTC1_L_00088019-04
1 10075U 24317MG  26075.70030093  .00000000  00000+0  00000-0 0  9991
2 10075  70.0000 216.0000 0000000   0.0000 126.0000 14.79785908    19
CTC1_L_00088020-01
1 10076U 22888IE  26075.70030093  .00000000  00000+0  00000-0 0  9993
2 10076  70.0000 228.0000 0000000   0.0000 228.0000 14.79785908    16
CTC1_L_00088020-02
1 10077U 25781IM  26075.70030093  .00000000  00000+0  00000-0 0  9999
2 10077  70.0000 228.0000 0000000   0.0000 318.0000 14.79785908    17
CTC1_L_00088020-03
1 10078U 26188DY  26075.70030093  .00000000  00000+0  00000-0 0  9992
2 10078  70.0000 228.0000 0000000   0.0000  48.0000 14.79785908    18
CTC1_L_00088020-04
1 10079U 22106AT  26075.70030093  .00000000  00000+0  00000-0 0  9999
2 10079  70.0000 228.0000 0000000   0.0000 138.0000 14.79785908    19
CTC1_L_00088021-01
1 10080U 23251LC  26075.70030093  .00000000  00000+0  00000-0 0  9993
2 10080  70.0000 240.0000 0000000   0.0000 240.0000 14.79785908    19
CTC1_L_00088021-02
1 10081U 25101WT  26075.70030093  .00000000  00000+0  00000-0 0  9990
2 10081  70.0000 240.0000 0000000   0.0000 330.0000 14.79785908    10
CTC1_L_00088021-03
1 10082U 26751IT  26075.70030093  .00000000  00000+0  00000-0 0  9993
2 10082  70.0000 240.0000 0000000   0.0000  60.0000 14.79785908    11
CTC1_L_00088021-04
1 10083U 26891YY  26075.70030093  .00000000  00000+0  00000-0 0  9999
2 10083  70.0000 240.0000 0000000   0.0000 150.0000 14.79785908    12
CTC1_L_00088022-01
1 10084U 24252RQ  26075.70030093  .00000000  00000+0  00000-0 0  9999
2 10084  70.0000 252.0000 0000000   0.0000 252.0000 14.79785908    19
CTC1_L_00088022-02
1 10085U 23588UE  26075.70030093  .00000000  00000+0  00000-0 0  9991
2 10085  70.0000 252.0000 0000000   0.0000 342.0000 14.79785908    10
CTC1_L_00088022-03
1 10086U 24553ZC  26075.70030093  .00000000  00000+0  00000-0 0  9995
2 10086  70.0000 252.0000 0000000   0.0000  72.0000 14.79785908    11
CTC1_L_00088022-04
1 10087U 25523GV  26075.70030093  .00000000  00000+0  00000-0 0  9994
2 10087  70.0000 252.0000 0000000   0.0000 162.0000 14.79785908    12
CTC1_L_00088023-01
1 10088U 24813FS  26075.70030093  .00000000  00000+0  00000-0 0  9996
2 10088  70.0000 264.0000 0000000   0.0000 264.0000 14.79785908    19
CTC1_L_00088023-02
1 10089U 22577BD  26075.70030093  .00000000  00000+0  00000-0 0  9992
2 10089  70.0000 264.0000 0000000   0.0000 354.0000 14.79785908    10
CTC1_L_00088023-03
1 10090U 22268CY  26075.70030093  .00000000  00000+0  00000-0 0  9991
2 10090  70.0000 264.0000 0000000   0.0000  84.0000 14.79785908    12
CTC1_L_00088023-04
1 10091U 22547AR  26075.70030093  .00000000  00000+0  00000-0 0  9992
2 10091  70.0000 264.0000 0000000   0.0000 174.0000 14.79785908    13
CTC1_L_00088024-01
1 10092U 23702AX  26075.70030093  .00000000  00000+0  00000-0 0  9997
2 10092  70.0000 276.0000 0000000   0.0000 276.0000 14.79785908    10
CTC1_L_00088024-02
1 10093U 26025BG  26075.70030093  .00000000  00000+0  00000-0 0  9999
2 10093  70.0000 276.0000 0000000   0.0000   6.0000 14.79785908    12
CTC1_L_00088024-03
1 10094U 26249SN  26075.70030093  .00000000  00000+0  00000-0 0  9998
2 10094  70.0000 276.0000 0000000   0.0000  96.0000 14.79785908    12
CTC1_L_00088024-04
1 10095U 25115RB  26075.70030093  .00000000  00000+0  00000-0 0  9990
2 10095  70.0000 276.0000 0000000   0.0000 186.0000 14.79785908    13
CTC1_L_00088025-01
1 10096U 22371YN  26075.70030093  .00000000  00000+0  00000-0 0  9992
2 10096  70.0000 288.0000 0000000   0.0000 288.0000 14.79785908    10
CTC1_L_00088025-02
1 10097U 26161PB  26075.70030093  .00000000  00000+0  00000-0 0  9994
2 10097  70.0000 288.0000 0000000   0.0000  18.0000 14.79785908    12
CTC1_L_00088025-03
1 10098U 23578LD  26075.70030093  .00000000  00000+0  00000-0 0  9994
2 10098  70.0000 288.0000 0000000   0.0000 108.0000 14.79785908    13
CTC1_L_00088025-04
1 10099U 22351RM  26075.70030093  .00000000  00000+0  00000-0 0  9993
2 10099  70.0000 288.0000 0000000   0.0000 198.0000 14.79785908    13
CTC1_L_00088026-01
1 10100U 26371BP  26075.70030093  .00000000  00000+0  00000-0 0  9992
2 10100  70.0000 300.0000 0000000   0.0000 300.0000 14.79785908    16
CTC1_L_00088026-02
1 10101U 24413KD  26075.70030093  .00000000  00000+0  00000-0 0  9998
2 10101  70.0000 300.0000 0000000   0.0000  30.0000 14.79785908    17
CTC1_L_00088026-03
1 10102U 22490GC  26075.70030093  .00000000  00000+0  00000-0 0  9992
2 10102  70.0000 300.0000 0000000   0.0000 120.0000 14.79785908    18
CTC1_L_00088026-04
1 10103U 25166KB  26075.70030093  .00000000  00000+0  00000-0 0  9996
2 10103  70.0000 300.0000 0000000   0.0000 210.0000 14.79785908    19
CTC1_L_00088027-01
1 10104U 24163TL  26075.70030093  .00000000  00000+0  00000-0 0  9993
2 10104  70.0000 312.0000 0000000   0.0000 312.0000 14.79785908    16
CTC1_L_00088027-02
1 10105U 22674LR  26075.70030093  .00000000  00000+0  00000-0 0  9999
2 10105  70.0000 312.0000 0000000   0.0000  42.0000 14.79785908    17
CTC1_L_00088027-03
1 10106U 23509IB  26075.70030093  .00000000  00000+0  00000-0 0  9998
2 10106  70.0000 312.0000 0000000   0.0000 132.0000 14.79785908    18
CTC1_L_00088027-04
1 10107U 22039AI  26075.70030093  .00000000  00000+0  00000-0 0  9996
2 10107  70.0000 312.0000 0000000   0.0000 222.0000 14.79785908    19
CTC1_L_00088028-01
1 10108U 25693RG  26075.70030093  .00000000  00000+0  00000-0 0  9996
2 10108  70.0000 324.0000 0000000   0.0000 324.0000 14.79785908    16
CTC1_L_00088028-02
1 10109U 25554JQ  26075.70030093  .00000000  00000+0  00000-0 0  9993
2 10109  70.0000 324.0000 0000000   0.0000  54.0000 14.79785908    17
CTC1_L_00088028-03
1 10110U 23522HJ  26075.70030093  .00000000  00000+0  00000-0 0  9998
2 10110  70.0000 324.0000 0000000   0.0000 144.0000 14.79785908    19
CTC1_L_00088028-04
1 10111U 24154OL  26075.70030093  .00000000  00000+0  00000-0 0  9991
2 10111  70.0000 324.0000 0000000   0.0000 234.0000 14.79785908    10
CTC1_L_00088029-01
1 10112U 24140SZ  26075.70030093  .00000000  00000+0  00000-0 0  9997
2 10112  70.0000 336.0000 0000000   0.0000 336.0000 14.79785908    17
CTC1_L_00088029-02
1 10113U 25864PZ  26075.70030093  .00000000  00000+0  00000-0 0  9992
2 10113  70.0000 336.0000 0000000   0.0000  66.0000 14.79785908    18
CTC1_L_00088029-03
1 10114U 24881QU  26075.70030093  .00000000  00000+0  00000-0 0  9991
2 10114  70.0000 336.0000 0000000   0.0000 156.0000 14.79785908    19
CTC1_L_00088029-04
1 10115U 25379IS  26075.70030093  .00000000  00000+0  00000-0 0  9995
2 10115  70.0000 336.0000 0000000   0.0000 246.0000 14.79785908    10
CTC1_L_00088030-01
1 10116U 23439SL  26075.70030093  .00000000  00000+0  00000-0 0  9991
2 10116  70.0000 348.0000 0000000   0.0000 348.0000 14.79785908    17
CTC1_L_00088030-02
1 10117U 22681OZ  26075.70030093  .00000000  00000+0  00000-0 0  9990
2 10117  70.0000 348.0000 0000000   0.0000  78.0000 14.79785908    18
CTC1_L_00088030-03
1 10118U 25224NR  26075.70030093  .00000000  00000+0  00000-0 0  9997
2 10118  70.0000 348.0000 0000000   0.0000 168.0000 14.79785908    19
CTC1_L_00088030-04
1 10119U 23666GE  26075.70030093  .00000000  00000+0  00000-0 0  9996
2 10119  70.0000 348.0000 0000000   0.0000 258.0000 14.79785908    10
